start=new Date('2023-01-03T00:00:00.000Z').valueOf();
sats=[{"REF_FRAME":"TEME","SEMIMAJOR_AXIS":"6925.342","APOAPSIS":"548.518","FILE":"3729873","MEAN_ELEMENT_THEORY":"SGP4","ARG_OF_PERICENTER":"63.3650","TLE_LINE1":"1 45784U 20038BG  23002.74852556  .00013607  00000-0  93056-3 0  9993","OBJECT_NAME":"STARLINK-1510","PERIOD":"95.592","NORAD_CAT_ID":"45784","DECAY_DATE":null,"MEAN_MOTION":"15.06402065","CLASSIFICATION_TYPE":"U","EPOCH":"2023-01-02T17:57:52.608384","CENTER_NAME":"EARTH","MEAN_ANOMALY":"296.7532","OBJECT_ID":"2020-038BG","INCLINATION":"53.0561","EPHEMERIS_TYPE":"0","OBJECT_TYPE":"PAYLOAD","PERIAPSIS":"545.897","COUNTRY_CODE":"US","GP_ID":"222062177","SITE":"AFETR","LAUNCH_DATE":"2020-06-13","ELEMENT_SET_NO":"999","ECCENTRICITY":"0.00018920","MEAN_MOTION_DOT":"0.00013607","TLE_LINE2":"2 45784  53.0561  12.7747 0001892  63.3650 296.7532 15.06402065141628","BSTAR":"0.00093056000000","REV_AT_EPOCH":"14162","MEAN_MOTION_DDOT":"0.0000000000000","RA_OF_ASC_NODE":"12.7747","RCS_SIZE":"LARGE","TIME_SYSTEM":"UTC"},{"REF_FRAME":"TEME","SEMIMAJOR_AXIS":"6925.352","APOAPSIS":"549.000","FILE":"3729873","MEAN_ELEMENT_THEORY":"SGP4","ARG_OF_PERICENTER":"35.0498","TLE_LINE1":"1 45785U 20038BH  23002.73009569  .00003952  00000-0  28406-3 0  9990","OBJECT_NAME":"STARLINK-1512","PERIOD":"95.592","DECAY_DATE":null,"NORAD_CAT_ID":"45785","EPOCH":"2023-01-02T17:31:20.267616","MEAN_MOTION":"15.06398745","CLASSIFICATION_TYPE":"U","CENTER_NAME":"EARTH","OBJECT_ID":"2020-038BH","MEAN_ANOMALY":"325.0660","INCLINATION":"53.0537","EPHEMERIS_TYPE":"0","OBJECT_TYPE":"PAYLOAD","PERIAPSIS":"545.435","COUNTRY_CODE":"US","GP_ID":"222060926","SITE":"AFETR","LAUNCH_DATE":"2020-06-13","ELEMENT_SET_NO":"999","ECCENTRICITY":"0.00025740","MEAN_MOTION_DOT":"0.00003952","TLE_LINE2":"2 45785  53.0537  12.8729 0002574  35.0498 325.0660 15.06398745141624","BSTAR":"0.00028406000000","REV_AT_EPOCH":"14162","MEAN_MOTION_DDOT":"0.0000000000000","RA_OF_ASC_NODE":"12.8729","RCS_SIZE":"LARGE","TIME_SYSTEM":"UTC"},{"ECCENTRICITY":"0.00021690","MEAN_MOTION_DOT":"-0.00005294","TLE_LINE2":"2 45786  53.0552  12.9189 0002169  37.7360 322.3781 15.06382708141626","BSTAR":"-0.00033690000000","MEAN_MOTION_DDOT":"0.0000000000000","REV_AT_EPOCH":"14162","RA_OF_ASC_NODE":"12.9189","RCS_SIZE":"LARGE","TIME_SYSTEM":"UTC","INCLINATION":"53.0552","EPHEMERIS_TYPE":"0","OBJECT_TYPE":"PAYLOAD","PERIAPSIS":"545.764","COUNTRY_CODE":"US","GP_ID":"222061176","SITE":"AFETR","LAUNCH_DATE":"2020-06-13","ELEMENT_SET_NO":"999","OBJECT_NAME":"STARLINK-1513","PERIOD":"95.593","DECAY_DATE":null,"NORAD_CAT_ID":"45786","CLASSIFICATION_TYPE":"U","EPOCH":"2023-01-02T17:10:04.676160","MEAN_MOTION":"15.06382708","CENTER_NAME":"EARTH","MEAN_ANOMALY":"322.3781","OBJECT_ID":"2020-038BJ","REF_FRAME":"TEME","APOAPSIS":"548.769","SEMIMAJOR_AXIS":"6925.402","MEAN_ELEMENT_THEORY":"SGP4","FILE":"3729873","ARG_OF_PERICENTER":"37.7360","TLE_LINE1":"1 45786U 20038BJ  23002.71533190 -.00005294  00000-0 -33690-3 0  9995"},{"COUNTRY_CODE":"US","PERIAPSIS":"545.612","GP_ID":"222061428","INCLINATION":"53.0561","OBJECT_TYPE":"PAYLOAD","EPHEMERIS_TYPE":"0","LAUNCH_DATE":"2020-06-13","ELEMENT_SET_NO":"999","SITE":"AFETR","BSTAR":"-0.00004821500000","MEAN_MOTION_DOT":"-0.00001000","ECCENTRICITY":"0.00022980","TLE_LINE2":"2 45787  53.0561  12.8948 0002298  36.8157 323.2989 15.06403276141620","RCS_SIZE":"LARGE","TIME_SYSTEM":"UTC","REV_AT_EPOCH":"14162","MEAN_MOTION_DDOT":"0.0000000000000","RA_OF_ASC_NODE":"12.8948","MEAN_ELEMENT_THEORY":"SGP4","FILE":"3729873","APOAPSIS":"548.795","SEMIMAJOR_AXIS":"6925.339","REF_FRAME":"TEME","TLE_LINE1":"1 45787U 20038BK  23002.72271939 -.00001000  00000-0 -48215-4 0  9998","ARG_OF_PERICENTER":"36.8157","DECAY_DATE":null,"NORAD_CAT_ID":"45787","CLASSIFICATION_TYPE":"U","MEAN_MOTION":"15.06403276","EPOCH":"2023-01-02T17:20:42.955296","OBJECT_NAME":"STARLINK-1517","PERIOD":"95.592","MEAN_ANOMALY":"323.2989","OBJECT_ID":"2020-038BK","CENTER_NAME":"EARTH"},{"REF_FRAME":"TEME","APOAPSIS":"548.547","SEMIMAJOR_AXIS":"6925.402","FILE":"3729583","MEAN_ELEMENT_THEORY":"SGP4","ARG_OF_PERICENTER":"52.3862","TLE_LINE1":"1 46027U 20055A   23002.56331655  .00006936  00000-0  48432-3 0  9990","OBJECT_NAME":"STARLINK-1522","PERIOD":"95.593","NORAD_CAT_ID":"46027","DECAY_DATE":null,"CLASSIFICATION_TYPE":"U","EPOCH":"2023-01-02T13:31:10.549920","MEAN_MOTION":"15.06382613","CENTER_NAME":"EARTH","OBJECT_ID":"2020-055A","MEAN_ANOMALY":"307.7294","INCLINATION":"53.0542","EPHEMERIS_TYPE":"0","OBJECT_TYPE":"PAYLOAD","PERIAPSIS":"545.986","COUNTRY_CODE":"US","GP_ID":"222027406","SITE":"AFETR","LAUNCH_DATE":"2020-08-07","ELEMENT_SET_NO":"999","ECCENTRICITY":"0.00018490","MEAN_MOTION_DOT":"0.00006936","TLE_LINE2":"2 46027  53.0542 303.6210 0001849  52.3862 307.7294 15.06382613133726","BSTAR":"0.00048432000000","REV_AT_EPOCH":"13372","MEAN_MOTION_DDOT":"0.0000000000000","RA_OF_ASC_NODE":"303.6210","RCS_SIZE":"LARGE","TIME_SYSTEM":"UTC"},{"MEAN_MOTION_DDOT":"0.0000000000000","REV_AT_EPOCH":"13378","RA_OF_ASC_NODE":"302.3436","RCS_SIZE":"LARGE","TIME_SYSTEM":"UTC","MEAN_MOTION_DOT":"0.00002843","ECCENTRICITY":"0.00017560","TLE_LINE2":"2 46028  53.0554 302.3436 0001756  63.8306 296.2864 15.06390511133780","BSTAR":"0.00020973000000","SITE":"AFETR","LAUNCH_DATE":"2020-08-07","ELEMENT_SET_NO":"999","INCLINATION":"53.0554","OBJECT_TYPE":"PAYLOAD","EPHEMERIS_TYPE":"0","COUNTRY_CODE":"US","PERIAPSIS":"546.027","GP_ID":"222062200","CENTER_NAME":"EARTH","MEAN_ANOMALY":"296.2864","OBJECT_ID":"2020-055B","OBJECT_NAME":"STARLINK-1523","PERIOD":"95.593","NORAD_CAT_ID":"46028","DECAY_DATE":null,"MEAN_MOTION":"15.06390511","EPOCH":"2023-01-02T20:14:33.152064","CLASSIFICATION_TYPE":"U","TLE_LINE1":"1 46028U 20055B   23002.84343926  .00002843  00000-0  20973-3 0  9999","ARG_OF_PERICENTER":"63.8306","REF_FRAME":"TEME","MEAN_ELEMENT_THEORY":"SGP4","FILE":"3729873","SEMIMAJOR_AXIS":"6925.378","APOAPSIS":"548.459"},{"ELEMENT_SET_NO":"999","LAUNCH_DATE":"2020-08-07","SITE":"AFETR","GP_ID":"222028895","COUNTRY_CODE":"US","PERIAPSIS":"546.102","OBJECT_TYPE":"PAYLOAD","EPHEMERIS_TYPE":"0","INCLINATION":"53.0551","TIME_SYSTEM":"UTC","RCS_SIZE":"LARGE","RA_OF_ASC_NODE":"303.5613","MEAN_MOTION_DDOT":"0.0000000000000","REV_AT_EPOCH":"13373","BSTAR":"0.00001530900000","TLE_LINE2":"2 46029  53.0551 303.5613 0001601  58.4586 301.6560 15.06400944133738","MEAN_MOTION_DOT":"-0.00000054","ECCENTRICITY":"0.00016010","TLE_LINE1":"1 46029U 20055C   23002.57067085 -.00000054  00000-0  15309-4 0  9990","ARG_OF_PERICENTER":"58.4586","MEAN_ELEMENT_THEORY":"SGP4","FILE":"3729583","APOAPSIS":"548.319","SEMIMAJOR_AXIS":"6925.346","REF_FRAME":"TEME","OBJECT_ID":"2020-055C","MEAN_ANOMALY":"301.6560","CENTER_NAME":"EARTH","EPOCH":"2023-01-02T13:41:45.961440","MEAN_MOTION":"15.06400944","CLASSIFICATION_TYPE":"U","NORAD_CAT_ID":"46029","DECAY_DATE":null,"PERIOD":"95.592","OBJECT_NAME":"STARLINK-1526"},{"EPHEMERIS_TYPE":"0","OBJECT_TYPE":"PAYLOAD","INCLINATION":"53.0569","GP_ID":"222006253","PERIAPSIS":"546.243","COUNTRY_CODE":"US","SITE":"AFETR","ELEMENT_SET_NO":"999","LAUNCH_DATE":"2020-08-07","TLE_LINE2":"2 46030  53.0569 303.8022 0001449  84.5175 275.5980 15.06389203133212","ECCENTRICITY":"0.00014490","MEAN_MOTION_DOT":"-0.00002083","BSTAR":"-0.00012105000000","RA_OF_ASC_NODE":"303.8022","MEAN_MOTION_DDOT":"0.0000000000000","REV_AT_EPOCH":"13321","TIME_SYSTEM":"UTC","RCS_SIZE":"LARGE","REF_FRAME":"TEME","SEMIMAJOR_AXIS":"6925.382","APOAPSIS":"548.250","MEAN_ELEMENT_THEORY":"SGP4","FILE":"3729511","ARG_OF_PERICENTER":"84.5175","TLE_LINE1":"1 46030U 20055D   23002.52276159 -.00002083  00000-0 -12105-3 0  9996","PERIOD":"95.593","OBJECT_NAME":"STARLINK-1534","MEAN_MOTION":"15.06389203","EPOCH":"2023-01-02T12:32:46.601376","CLASSIFICATION_TYPE":"U","DECAY_DATE":null,"NORAD_CAT_ID":"46030","CENTER_NAME":"EARTH","MEAN_ANOMALY":"275.5980","OBJECT_ID":"2020-055D"},{"TLE_LINE1":"1 46031U 20055E   23002.85723643  .00004571  00000-0  32565-3 0  9992","ARG_OF_PERICENTER":"41.7348","REF_FRAME":"TEME","FILE":"3729873","MEAN_ELEMENT_THEORY":"SGP4","APOAPSIS":"548.462","SEMIMAJOR_AXIS":"6925.372","CENTER_NAME":"EARTH","MEAN_ANOMALY":"318.3775","OBJECT_ID":"2020-055E","OBJECT_NAME":"STARLINK-1544","PERIOD":"95.593","NORAD_CAT_ID":"46031","DECAY_DATE":null,"MEAN_MOTION":"15.06392276","CLASSIFICATION_TYPE":"U","EPOCH":"2023-01-02T20:34:25.227552","SITE":"AFETR","LAUNCH_DATE":"2020-08-07","ELEMENT_SET_NO":"999","INCLINATION":"53.0542","OBJECT_TYPE":"PAYLOAD","EPHEMERIS_TYPE":"0","COUNTRY_CODE":"US","PERIAPSIS":"546.012","GP_ID":"222061451","MEAN_MOTION_DDOT":"0.0000000000000","REV_AT_EPOCH":"13376","RA_OF_ASC_NODE":"302.2885","RCS_SIZE":"LARGE","TIME_SYSTEM":"UTC","MEAN_MOTION_DOT":"0.00004571","ECCENTRICITY":"0.00017690","TLE_LINE2":"2 46031  53.0542 302.2885 0001769  41.7348 318.3775 15.06392276133768","BSTAR":"0.00032565000000"},{"OBJECT_ID":"2020-055F","MEAN_ANOMALY":"311.2559","CENTER_NAME":"EARTH","EPOCH":"2023-01-02T13:20:32.942976","MEAN_MOTION":"15.06396324","CLASSIFICATION_TYPE":"U","NORAD_CAT_ID":"46032","DECAY_DATE":null,"PERIOD":"95.592","OBJECT_NAME":"STARLINK-1555","ARG_OF_PERICENTER":"48.8599","TLE_LINE1":"1 46032U 20055F   23002.55593684 -.00001334  00000-0 -70670-4 0  9996","SEMIMAJOR_AXIS":"6925.360","APOAPSIS":"548.586","MEAN_ELEMENT_THEORY":"SGP4","FILE":"3729682","REF_FRAME":"TEME","TIME_SYSTEM":"UTC","RCS_SIZE":"LARGE","RA_OF_ASC_NODE":"303.6534","MEAN_MOTION_DDOT":"0.0000000000000","REV_AT_EPOCH":"13321","BSTAR":"-0.00007067000000","TLE_LINE2":"2 46032  53.0556 303.6534 0001965  48.8599 311.2559 15.06396324133214","ECCENTRICITY":"0.00019650","MEAN_MOTION_DOT":"-0.00001334","ELEMENT_SET_NO":"999","LAUNCH_DATE":"2020-08-07","SITE":"AFETR","GP_ID":"222037223","PERIAPSIS":"545.864","COUNTRY_CODE":"US","EPHEMERIS_TYPE":"0","OBJECT_TYPE":"PAYLOAD","INCLINATION":"53.0556"}];
